NORAD_CAT_ID,OBJECT_NAME,OBJECT_TYPE,EPOCH,MEAN_MOTION,ECCENTRICITY,INCLINATION,RA_OF_ASC_NODE,ARG_OF_PERICENTER,MEAN_ANOMALY,BSTAR,MEAN_MOTION_DOT,MEAN_MOTION_DDOT,TLE_LINE0,TLE_LINE1,TLE_LINE2,SEMIMAJOR_AXIS,PERIOD,APOGEE,PERIGEE,DECAYED
49454.0,STARLINK-3160,PAYLOAD,2022-01-17 12:00:00,15.52478963,0.0001751,53.2175,172.6283,31.3129,330.5121,-0.011473,-0.00658151,0.0,0 STARLINK-3160,1 49454U 21104AY  22017.50001157 -.00658151  00000-0 -11473-1 0  9990,2 49454  53.2175 172.6283 0001751  31.3129 330.5121 15.52478963 11493,6787.628000000002,92.755,410.681,408.304,0.0
49454.0,STARLINK-3160,PAYLOAD,2022-01-17 14:00:01,15.523609,0.0001957,53.2174,172.2293,29.2459,78.5679,-0.011487,-0.00656328,0.0,0 STARLINK-3160,1 49454U 21104AY  22017.58334491 -.00656328  00000-0 -11487-1 0  9997,2 49454  53.2174 172.2293 0001957  29.2459  78.5679 15.52360900  3713,6787.972,92.762,411.165,408.509,0.0
49454.0,STARLINK-3160,PAYLOAD,2022-01-17 22:00:00,15.51892297,0.0001748,53.2172,170.6327,38.4308,132.9862,-0.011606,-0.00652278,0.0,0 STARLINK-3160,1 49454U 21104AY  22017.91667824 -.00652278  00000-0 -11606-1 0  9996,2 49454  53.2172 170.6327 0001748  38.4308 132.9862 15.51892297  3698,6789.3380000000025,92.79,412.39,410.017,0.0
49454.0,STARLINK-3160,PAYLOAD,2022-01-18 14:00:01,15.50961171,0.0002007,53.2176,167.4398,28.428,268.5135,-0.01207,-0.00655749,0.0,0 STARLINK-3160,1 49454U 21104AY  22018.58334491 -.00655749  00000-0 -12070-1 0  9993,2 49454  53.2176 167.4398 0002007  28.4280 268.5135 15.50961171  3686,6792.055,92.846,415.284,412.557,0.0
49454.0,STARLINK-3160,PAYLOAD,2022-01-18 20:00:01,15.50608379,0.0001584,53.2175,166.245,46.8915,206.6086,-0.012126,-0.00650853,0.0,0 STARLINK-3160,1 49454U 21104AY  22018.83335648 -.00650853  00000-0 -12126-1 0  9999,2 49454  53.2175 166.2450 0001584  46.8915 206.6086 15.50608379 11707,6793.0859999999975,92.867,416.027,413.875,0.0
49454.0,STARLINK-3160,PAYLOAD,2022-01-18 22:00:00,15.50494733,0.0001453999999999,53.2173,165.8464,41.0363,317.8257,-0.012259,-0.00654956,0.0,0 STARLINK-3160,1 49454U 21104AY  22018.91667824 -.00654956  00000-0 -12259-1 0  9997,2 49454  53.2173 165.8464 0001454  41.0363 317.8257 15.50494733  3685,6793.418000000002,92.874,416.27,414.295,0.0
49454.0,STARLINK-3160,PAYLOAD,2022-01-19 14:00:01,15.49492467,0.0001629999999999,53.2173,162.6586,45.8789,75.1781,-0.010631,-0.00555149,0.0,0 STARLINK-3160,1 49454U 21104AY  22019.58334491 -.00555149  00000-0 -10631-1 0  9998,2 49454  53.2173 162.6586 0001630  45.8789  75.1781 15.49492467  3669,6796.347,92.934,419.32,417.104,0.0
49454.0,STARLINK-3160,PAYLOAD,2022-01-19 20:00:01,15.49073187,0.0001505,53.2173,161.4676,41.4325,34.8453,-0.003465,-0.0018706,0.0,0 STARLINK-3160,1 49454U 21104AY  22019.83334491 -.00187060  00000-0 -34650-2 0  9997,2 49454  53.2173 161.4676 0001505  41.4325  34.8453 15.49073187 11857,6797.573,92.959,420.461,418.415,0.0
49454.0,STARLINK-3160,PAYLOAD,2022-01-19 22:00:00,15.48980888,0.0001652,53.217,161.0695,40.9964,140.2794,-0.00097565,-0.00053718,0.0,0 STARLINK-3160,1 49454U 21104AY  22019.91667824 -.00053718  00000-0 -97565-3 0  9992,2 49454  53.2170 161.0695 0001652  40.9964 140.2794 15.48980888  3683,6797.843000000003,92.964,420.831,418.585,0.0
49454.0,STARLINK-3160,PAYLOAD,2022-01-20 04:00:00,15.4894767,0.0001686,53.2173,159.8749,37.479,98.6541,1.9752e-05,6.38e-06,0.0,0 STARLINK-3160,1 49454U 21104AY  22020.16667824  .00000638  00000-0  19752-4 0  9995,2 49454  53.2173 159.8749 0001686  37.4790  98.6541 15.48947670 11919,6797.94,92.966,420.951,418.659,0.0
49454.0,STARLINK-3160,PAYLOAD,2022-01-20 12:00:00,15.48999099,0.0001761,53.2159,158.2772,39.2007,156.8138,0.00030065,0.00016127,0.0,0 STARLINK-3160,1 49454U 21104AY  22020.50001157  .00016127  00000-0  30065-3 0  9993,2 49454  53.2159 158.2772 0001761  39.2007 156.8138 15.48999099 11963,6797.79,92.963,420.852,418.458,0.0
49454.0,STARLINK-3160,PAYLOAD,2022-01-20 14:00:01,15.49021289,0.0001807,53.2165,157.8811,37.265,263.7236,0.00031608,0.00016992,0.0,0 STARLINK-3160,1 49454U 21104AY  22020.58334491  .00016992  00000-0  31608-3 0  9995,2 49454  53.2165 157.8811 0001807  37.2650 263.7236 15.49021289  3654,6797.725,92.962,420.818,418.362,0.0
49454.0,STARLINK-3160,PAYLOAD,2022-01-20 20:00:01,15.49212226,0.0001758,53.2167,156.6918,32.7266,223.208,-0.012098,-0.00620327,0.0,0 STARLINK-3160,1 49454U 21104AY  22020.83335648 -.00620327  00000-0 -12098-1 0  9993,2 49454  53.2167 156.6918 0001758  32.7266 223.2080 15.49212226 12010,6797.166,92.95,420.226,417.836,0.0
49454.0,STARLINK-3160,PAYLOAD,2022-01-20 22:00:00,15.49094966,0.0001746,53.2167,156.2945,32.0767,328.7956,-0.011044,-0.00567754,0.0,0 STARLINK-3160,1 49454U 21104AY  22020.91667824 -.00567754  00000-0 -11044-1 0  9990,2 49454  53.2167 156.2945 0001746  32.0767 328.7956 15.49094966  3676,6797.509,92.958,420.561,418.187,0.0
49454.0,STARLINK-3160,PAYLOAD,2022-01-21 04:00:00,15.48858942,0.000162,53.2176,155.1037,37.2117,278.4465,-0.0098717999999999,-0.0050718999999999,0.0,0 STARLINK-3160,1 49454U 21104AY  22021.16667824 -.00507190  00000-0 -98718-2 0  9990,2 49454  53.2176 155.1037 0001620  37.2117 278.4465 15.48858942 12063,6798.2,92.972,421.166,418.964,0.0
49454.0,STARLINK-3160,PAYLOAD,2022-01-21 12:00:00,15.48500071,0.000186,53.2176,153.5144,28.8453,346.171,-0.013222,-0.00657944,0.0,0 STARLINK-3160,1 49454U 21104AY  22021.50001157 -.00657944  00000-0 -13222-1 0  9998,2 49454  53.2176 153.5144 0001860  28.8453 346.1710 15.48500071 12118,6799.25,92.993,422.38,419.851,0.0
49454.0,STARLINK-3160,PAYLOAD,2022-01-21 14:00:01,15.48354195,0.0001601,53.2173,153.1162,35.9361,83.8884,-0.012411,-0.00617588,0.0,0 STARLINK-3160,1 49454U 21104AY  22021.58334491 -.00617588  00000-0 -12411-1 0  9995,2 49454  53.2173 153.1162 0001601  35.9361  83.8884 15.48354195  3662,6799.677,93.002,422.631,420.454,0.0
49454.0,STARLINK-3160,PAYLOAD,2022-01-21 22:00:00,15.47916071,0.0001604,53.2172,151.5298,44.8605,133.7712,-0.0134669999999999,-0.00656589,0.0,0 STARLINK-3160,1 49454U 21104AY  22021.91667824 -.00656589  00000-0 -13467-1 0  9997,2 49454  53.2172 151.5298 0001604  44.8605 133.7712 15.47916071  3689,6800.96,93.028,423.916,421.734,0.0
49454.0,STARLINK-3160,PAYLOAD,2022-01-22 14:00:01,15.46907096,0.0001676999999999,53.2175,148.3553,48.5396,246.0947,-0.011613,-0.00553886,0.0,0 STARLINK-3160,1 49454U 21104AY  22022.58334491 -.00553886  00000-0 -11613-1 0  9999,2 49454  53.2175 148.3553 0001677  48.5396 246.0947 15.46907096  3659,6803.917,93.089,426.923,424.641,0.0
49454.0,STARLINK-3160,PAYLOAD,2022-01-22 20:00:01,15.46630351,0.0001634,53.2173,147.1686,44.7251,202.7776,-0.013959,-0.00651158,0.0,0 STARLINK-3160,1 49454U 21104AY  22022.83334491 -.00651158  00000-0 -13959-1 0  9993,2 49454  53.2173 147.1686 0001634  44.7251 202.7776 15.46630351 12322,6804.729,93.106,427.706,425.482,0.0
49454.0,STARLINK-3160,PAYLOAD,2022-01-22 22:00:00,15.46516948,0.0001501999999999,53.2173,146.7721,41.3697,310.3647,-0.01415,-0.00656956,0.0,0 STARLINK-3160,1 49454U 21104AY  22022.91667824 -.00656956  00000-0 -14150-1 0  9996,2 49454  53.2173 146.7721 0001502  41.3697 310.3647 15.46516948  3674,6805.061,93.112,427.949,425.904,0.0
49454.0,STARLINK-3160,PAYLOAD,2022-01-23 14:00:01,15.45582763,0.0002092,53.2174,143.6063,27.5718,76.7618,-0.014582,-0.00655676,0.0,0 STARLINK-3160,1 49454U 21104AY  22023.58334491 -.00655676  00000-0 -14582-1 0  9998,2 49454  53.2174 143.6063 0002092  27.5718  76.7618 15.45582763  3684,6807.803000000001,93.169,431.092,428.244,0.0
49454.0,STARLINK-3160,PAYLOAD,2022-01-23 20:00:01,15.45231841,0.0001576999999999,53.2172,142.4204,36.9397,19.0402,-0.014693,-0.00652878,0.0,0 STARLINK-3160,1 49454U 21104AY  22023.83334491 -.00652878  00000-0 -14693-1 0  9990,2 49454  53.2172 142.4204 0001577  36.9397  19.0402 15.45231841 12476,6808.834,93.19,431.773,429.625,0.0
49454.0,STARLINK-3160,PAYLOAD,2022-01-23 22:00:00,15.4511602,0.0001692,53.2172,142.0245,41.0857,118.7066,-0.014804,-0.0065503,0.0,0 STARLINK-3160,1 49454U 21104AY  22023.91667824 -.00655030  00000-0 -14804-1 0  9995,2 49454  53.2172 142.0245 0001692  41.0857 118.7066 15.45116020  3680,6809.174,93.197,432.191,429.887,0.0
49454.0,STARLINK-3160,PAYLOAD,2022-01-24 14:00:01,15.44181955,0.0002,53.2173,138.8654,33.1117,235.9158,-0.015256,-0.00653905,0.0,0 STARLINK-3160,1 49454U 21104AY  22024.58334491 -.00653905  00000-0 -15256-1 0  9991,2 49454  53.2173 138.8654 0002000  33.1117 235.9158 15.44181955  3674,6811.92,93.253,435.147,432.422,0.0
49454.0,STARLINK-3160,PAYLOAD,2022-01-24 20:00:01,15.43832838,0.0001598,53.2171,137.68200000000002,48.3268,171.085,-0.015453,-0.00662245,0.0,0 STARLINK-3160,1 49454U 21104AY  22024.83334491 -.00662245  00000-0 -15453-1 0  9995,2 49454  53.2171 137.6820 0001598  48.3268 171.0850 15.43832838 12637,6812.946999999999,93.274,435.9,433.723,0.0
49454.0,STARLINK-3160,PAYLOAD,2022-01-24 22:00:00,15.43717464,0.0001426999999999,53.2173,137.287,49.0131,273.7904,-0.015584,-0.00665014,0.0,0 STARLINK-3160,1 49454U 21104AY  22024.91667824 -.00665014  00000-0 -15584-1 0  9995,2 49454  53.2173 137.2870 0001427  49.0131 273.7904 15.43717464  3679,6813.286,93.281,436.12300000000016,434.179,0.0
49454.0,STARLINK-3160,PAYLOAD,2022-01-25 14:00:01,15.42784394,0.0001869,53.2173,134.1349,31.8184,36.8558,-0.016082,-0.00664956,0.0,0 STARLINK-3160,1 49454U 21104AY  22025.58334491 -.00664956  00000-0 -16082-1 0  9998,2 49454  53.2173 134.1349 0001869  31.8184  36.8558 15.42784394  3659,6816.033,93.338,439.172,436.624,0.0
49454.0,STARLINK-3160,PAYLOAD,2022-01-25 20:00:01,15.42433404,0.000146,53.2172,132.9537,42.1333,335.6646,-0.016197,-0.00661982,0.0,0 STARLINK-3160,1 49454U 21104AY  22025.83334491 -.00661982  00000-0 -16197-1 0  9999,2 49454  53.2172 132.9537 0001460  42.1333 335.6646 15.42433404 12786,6817.066999999999,93.359,439.927,437.937,0.0
